{
  "norad_id": 45379,
  "name": "STARLINK-1319",
  "history": [
    {
      "epoch": "2026-03-28T22:34:01.425792Z",
      "apogee_km": 368.045867460145,
      "perigee_km": 364.02714934995674,
      "latitude_deg": 1.3619370958492602e-05,
      "longitude_deg": -129.81986288655827,
      "height_km": 367.56282739737134,
      "semi_major_axis_km": 6744.173508405051,
      "eccentricity": 0.00029794,
      "inclination_deg": 53.0443,
      "raan_deg": 35.0396,
      "arg_perigee_deg": 108.2332,
      "mean_anomaly_deg": 251.9008,
      "mean_motion_rev_day": 15.67507616
    },
    {
      "epoch": "2026-03-29T04:41:15.908064Z",
      "apogee_km": 367.9228408318222,
      "perigee_km": 363.8764188539162,
      "latitude_deg": 2.5585962303176e-05,
      "longitude_deg": 136.86143555511075,
      "height_km": 367.52035929515245,
      "semi_major_axis_km": 6744.036629842869,
      "eccentricity": 0.0003,
      "inclination_deg": 53.0445,
      "raan_deg": 33.7826,
      "arg_perigee_deg": 110.9386,
      "mean_anomaly_deg": 249.1951,
      "mean_motion_rev_day": 15.67555338
    },
    {
      "epoch": "2026-03-30T03:38:19.846176Z",
      "apogee_km": 367.4591913824879,
      "perigee_km": 363.43596882199836,
      "latitude_deg": -2.3419828671820477e-06,
      "longitude_deg": 146.94013851124103,
      "height_km": 367.17625691475394,
      "semi_major_axis_km": 6743.584580102242,
      "eccentricity": 0.0002983,
      "inclination_deg": 53.0449,
      "raan_deg": 29.0703,
      "arg_perigee_deg": 114.3916,
      "mean_anomaly_deg": 245.7411,
      "mean_motion_rev_day": 15.6771296
    },
    {
      "epoch": "2026-03-30T06:41:55.748544Z",
      "apogee_km": 367.41671677373233,
      "perigee_km": 363.3498345658818,
      "latitude_deg": -4.412161266065403e-05,
      "longitude_deg": 100.2863455823469,
      "height_km": 367.1449880550912,
      "semi_major_axis_km": 6743.520275669807,
      "eccentricity": 0.00030154,
      "inclination_deg": 53.045,
      "raan_deg": 28.4418,
      "arg_perigee_deg": 115.1368,
      "mean_anomaly_deg": 244.996,
      "mean_motion_rev_day": 15.67735384
    },
    {
      "epoch": "2026-03-30T12:49:07.110048Z",
      "apogee_km": 367.29244260804535,
      "perigee_km": 363.2449156513185,
      "latitude_deg": 1.7781665437991383e-05,
      "longitude_deg": 6.981820402020911,
      "height_km": 367.04252675332884,
      "semi_major_axis_km": 6743.405679129682,
      "eccentricity": 0.00030011,
      "inclination_deg": 53.045,
      "raan_deg": 27.1859,
      "arg_perigee_deg": 115.6446,
      "mean_anomaly_deg": 244.488,
      "mean_motion_rev_day": 15.67775347
    },
    {
      "epoch": "2026-03-30T21:59:53.066688Z",
      "apogee_km": 367.08471904741873,
      "perigee_km": 363.0889543307512,
      "latitude_deg": -8.177575677655907e-06,
      "longitude_deg": -132.97187046924535,
      "height_km": 366.8942051536833,
      "semi_major_axis_km": 6743.223836689085,
      "eccentricity": 0.00029628,
      "inclination_deg": 53.0449,
      "raan_deg": 25.3007,
      "arg_perigee_deg": 117.0721,
      "mean_anomaly_deg": 243.0597,
      "mean_motion_rev_day": 15.67838764
    },
    {
      "epoch": "2026-03-31T20:56:42.367776Z",
      "apogee_km": 366.6435266032431,
      "perigee_km": 362.68685027906577,
      "latitude_deg": -5.787813788866481e-06,
      "longitude_deg": -122.83258951625498,
      "height_km": 366.5923467325459,
      "semi_major_axis_km": 6742.802188441154,
      "eccentricity": 0.0002934,
      "inclination_deg": 53.0454,
      "raan_deg": 20.5878,
      "arg_perigee_deg": 121.3323,
      "mean_anomaly_deg": 238.798,
      "mean_motion_rev_day": 15.67985829
    }
  ]
}